{
  "links" : {
    "next" : "https://api.nasa.gov/neo/rest/v1/feed?start_date=2011-09-16&end_date=2011-09-16&detailed=true&api_key=t0TVs3DtDT2H8Oy2Zy8m2eVrNsAVKAexjcZXUckd",
    "prev" : "https://api.nasa.gov/neo/rest/v1/feed?start_date=2011-09-14&end_date=2011-09-14&detailed=true&api_key=t0TVs3DtDT2H8Oy2Zy8m2eVrNsAVKAexjcZXUckd",
    "self" : "https://api.nasa.gov/neo/rest/v1/feed?start_date=2011-09-15&end_date=2011-09-15&detailed=true&api_key=t0TVs3DtDT2H8Oy2Zy8m2eVrNsAVKAexjcZXUckd"
  },
  "element_count" : 8,
  "near_earth_objects" : {
    "2011-09-15" : [ {
      "links" : {
        "self" : "https://api.nasa.gov/neo/rest/v1/neo/2309214?api_key=t0TVs3DtDT2H8Oy2Zy8m2eVrNsAVKAexjcZXUckd"
      },
      "neo_reference_id" : "2309214",
      "name" : "309214 (2007 LL)",
      "nasa_jpl_url" : "http://ssd.jpl.nasa.gov/sbdb.cgi?sstr=2309214",
      "absolute_magnitude_h" : 20.4,
      "estimated_diameter" : {
        "kilometers" : {
          "estimated_diameter_min" : 0.2210828104,
          "estimated_diameter_max" : 0.4943561926
        },
        "meters" : {
          "estimated_diameter_min" : 221.0828103591,
          "estimated_diameter_max" : 494.3561926196
        },
        "miles" : {
          "estimated_diameter_min" : 0.137374447,
          "estimated_diameter_max" : 0.3071786018
        },
        "feet" : {
          "estimated_diameter_min" : 725.3373275385,
          "estimated_diameter_max" : 1621.9035709942
        }
      },
      "is_potentially_hazardous_asteroid" : false,
      "close_approach_data" : [ {
        "close_approach_date" : "2011-09-15",
        "epoch_date_close_approach" : 1316070000000,
        "relative_velocity" : {
          "kilometers_per_second" : "10.6505468945",
          "kilometers_per_hour" : "38341.9688201068",
          "miles_per_hour" : "23824.2083482491"
        },
        "miss_distance" : {
          "astronomical" : "0.2492533745",
          "lunar" : "96.959564209",
          "kilometers" : "37287776",
          "miles" : "23169550"
        },
        "orbiting_body" : "Earth"
      } ],
      "orbital_data" : {
        "orbit_id" : "79",
        "orbit_determination_date" : "2017-04-06 09:23:56",
        "orbit_uncertainty" : "1",
        "minimum_orbit_intersection" : ".0847619",
        "jupiter_tisserand_invariant" : "6.148",
        "epoch_osculation" : "2458000.5",
        "eccentricity" : ".1741189211272803",
        "semi_major_axis" : ".9806683634597565",
        "inclination" : "10.053773306079",
        "ascending_node_longitude" : "247.0777254559371",
        "orbital_period" : "354.7167319101019",
        "perihelion_distance" : ".809915446030488",
        "perihelion_argument" : "211.4540997314136",
        "aphelion_distance" : "1.151421280889025",
        "perihelion_time" : "2458022.607194122985",
        "mean_anomaly" : "337.5635340306094",
        "mean_motion" : "1.014894330079803",
        "equinox" : "J2000"
      }
    }, {
      "links" : {
        "self" : "https://api.nasa.gov/neo/rest/v1/neo/3153530?api_key=t0TVs3DtDT2H8Oy2Zy8m2eVrNsAVKAexjcZXUckd"
      },
      "neo_reference_id" : "3153530",
      "name" : "(2003 HT42)",
      "nasa_jpl_url" : "http://ssd.jpl.nasa.gov/sbdb.cgi?sstr=3153530",
      "absolute_magnitude_h" : 24.8,
      "estimated_diameter" : {
        "kilometers" : {
          "estimated_diameter_min" : 0.0291443905,
          "estimated_diameter_max" : 0.0651688382
        },
        "meters" : {
          "estimated_diameter_min" : 29.1443904535,
          "estimated_diameter_max" : 65.1688382168
        },
        "miles" : {
          "estimated_diameter_min" : 0.018109479,
          "estimated_diameter_max" : 0.0404940262
        },
        "feet" : {
          "estimated_diameter_min" : 95.6180819754,
          "estimated_diameter_max" : 213.8085311752
        }
      },
      "is_potentially_hazardous_asteroid" : false,
      "close_approach_data" : [ {
        "close_approach_date" : "2011-09-15",
        "epoch_date_close_approach" : 1316070000000,
        "relative_velocity" : {
          "kilometers_per_second" : "11.7955651581",
          "kilometers_per_hour" : "42464.034569331",
          "miles_per_hour" : "26385.4997022601"
        },
        "miss_distance" : {
          "astronomical" : "0.3775948987",
          "lunar" : "146.8844146729",
          "kilometers" : "56487392",
          "miles" : "35099636"
        },
        "orbiting_body" : "Earth"
      } ],
      "orbital_data" : {
        "orbit_id" : "14",
        "orbit_determination_date" : "2017-04-06 09:14:07",
        "orbit_uncertainty" : "6",
        "minimum_orbit_intersection" : ".0133187",
        "jupiter_tisserand_invariant" : "7.149",
        "epoch_osculation" : "2458000.5",
        "eccentricity" : ".2618003732385273",
        "semi_major_axis" : ".8145267445065926",
        "inclination" : "4.881530883173743",
        "ascending_node_longitude" : "38.77825533771854",
        "orbital_period" : "268.5075178657495",
        "perihelion_distance" : ".6012833387820041",
        "perihelion_argument" : "352.3550245814477",
        "aphelion_distance" : "1.027770150231181",
        "perihelion_time" : "2457988.127857502525",
        "mean_anomaly" : "16.58788303021728",
        "mean_motion" : "1.340744582727087",
        "equinox" : "J2000"
      }
    }, {
      "links" : {
        "self" : "https://api.nasa.gov/neo/rest/v1/neo/3274691?api_key=t0TVs3DtDT2H8Oy2Zy8m2eVrNsAVKAexjcZXUckd"
      },
      "neo_reference_id" : "3274691",
      "name" : "(2005 FC)",
      "nasa_jpl_url" : "http://ssd.jpl.nasa.gov/sbdb.cgi?sstr=3274691",
      "absolute_magnitude_h" : 24.5,
      "estimated_diameter" : {
        "kilometers" : {
          "estimated_diameter_min" : 0.0334622374,
          "estimated_diameter_max" : 0.0748238376
        },
        "meters" : {
          "estimated_diameter_min" : 33.4622374455,
          "estimated_diameter_max" : 74.8238376074
        },
        "miles" : {
          "estimated_diameter_min" : 0.0207924639,
          "estimated_diameter_max" : 0.0464933628
        },
        "feet" : {
          "estimated_diameter_min" : 109.7842471007,
          "estimated_diameter_max" : 245.4850393757
        }
      },
      "is_potentially_hazardous_asteroid" : false,
      "close_approach_data" : [ {
        "close_approach_date" : "2011-09-15",
        "epoch_date_close_approach" : 1316070000000,
        "relative_velocity" : {
          "kilometers_per_second" : "11.9460728178",
          "kilometers_per_hour" : "43005.8621439594",
          "miles_per_hour" : "26722.1702860619"
        },
        "miss_distance" : {
          "astronomical" : "0.3042062265",
          "lunar" : "118.3362197876",
          "kilometers" : "45508604",
          "miles" : "28277736"
        },
        "orbiting_body" : "Earth"
      } ],
      "orbital_data" : {
        "orbit_id" : "9",
        "orbit_determination_date" : "2017-04-06 09:11:14",
        "orbit_uncertainty" : "6",
        "minimum_orbit_intersection" : ".0247104",
        "jupiter_tisserand_invariant" : "6.455",
        "epoch_osculation" : "2458000.5",
        "eccentricity" : ".2708340787063648",
        "semi_major_axis" : ".9182685549901616",
        "inclination" : "12.82372798329993",
        "ascending_node_longitude" : ".1826417533350294",
        "orbital_period" : "321.4052717631397",
        "perihelion_distance" : ".6695701368943763",
        "perihelion_argument" : "310.8468810792294",
        "aphelion_distance" : "1.166966973085947",
        "perihelion_time" : "2458044.869178255389",
        "mean_anomaly" : "310.3029179194314",
        "mean_motion" : "1.120081192275224",
        "equinox" : "J2000"
      }
    } ]
  }
}